[{"OBJECT_NAME":"ONEWEB-0352","OBJECT_ID":"2021-083AG","EPOCH":"2025-09-09T01:58:11.731872","MEAN_MOTION":13.13471115,"ECCENTRICITY":0.00013384,"INCLINATION":87.9013,"RA_OF_ASC_NODE":16.0998,"ARG_OF_PERICENTER":105.5109,"MEAN_ANOMALY":254.6168,"EPHEMERIS_TYPE":0,"CLASSIFICATION_TYPE":"U","NORAD_CAT_ID":49216,"ELEMENT_SET_NO":999,"REV_AT_EPOCH":19412,"BSTAR":-0.00023920342,"MEAN_MOTION_DOT":-7.5e-7,"MEAN_MOTION_DDOT":0},{"OBJECT_NAME":"ONEWEB-0354","OBJECT_ID":"2021-083AH","EPOCH":"2025-09-09T05:26:42.122688","MEAN_MOTION":13.20769915,"ECCENTRICITY":0.00021115,"INCLINATION":87.9291,"RA_OF_ASC_NODE":330.4411,"ARG_OF_PERICENTER":105.6553,"MEAN_ANOMALY":254.4814,"EPHEMERIS_TYPE":0,"CLASSIFICATION_TYPE":"U","NORAD_CAT_ID":49217,"ELEMENT_SET_NO":999,"REV_AT_EPOCH":19972,"BSTAR":0.00034864619,"MEAN_MOTION_DOT":1.55e-6,"MEAN_MOTION_DDOT":0},{"OBJECT_NAME":"ONEWEB-0355","OBJECT_ID":"2021-083AJ","EPOCH":"2025-09-09T06:19:14.323872","MEAN_MOTION":13.13468986,"ECCENTRICITY":0.00016637,"INCLINATION":87.9033,"RA_OF_ASC_NODE":16.069,"ARG_OF_PERICENTER":105.8177,"MEAN_ANOMALY":254.3135,"EPHEMERIS_TYPE":0,"CLASSIFICATION_TYPE":"U","NORAD_CAT_ID":49218,"ELEMENT_SET_NO":999,"REV_AT_EPOCH":19402,"BSTAR":0.0010164959,"MEAN_MOTION_DOT":3.84e-6,"MEAN_MOTION_DDOT":0},{"OBJECT_NAME":"ONEWEB-0357","OBJECT_ID":"2021-083AK","EPOCH":"2025-09-09T05:22:10.373088","MEAN_MOTION":13.2075976,"ECCENTRICITY":0.0001824,"INCLINATION":87.9282,"RA_OF_ASC_NODE":330.4422,"ARG_OF_PERICENTER":103.0555,"MEAN_ANOMALY":257.0782,"EPHEMERIS_TYPE":0,"CLASSIFICATION_TYPE":"U","NORAD_CAT_ID":49219,"ELEMENT_SET_NO":999,"REV_AT_EPOCH":19972,"BSTAR":-0.0027913071,"MEAN_MOTION_DOT":-1.122e-5,"MEAN_MOTION_DDOT":0},{"OBJECT_NAME":"ONEWEB-0332","OBJECT_ID":"2021-090A","EPOCH":"2025-09-09T06:25:45.880032","MEAN_MOTION":13.14502714,"ECCENTRICITY":0.00015969,"INCLINATION":87.9093,"RA_OF_ASC_NODE":345.6493,"ARG_OF_PERICENTER":95.0838,"MEAN_ANOMALY":265.0474,"EPHEMERIS_TYPE":0,"CLASSIFICATION_TYPE":"U","NORAD_CAT_ID":49279,"ELEMENT_SET_NO":999,"REV_AT_EPOCH":19067,"BSTAR":0.00029567521,"MEAN_MOTION_DOT":1.22e-6,"MEAN_MOTION_DDOT":0},{"OBJECT_NAME":"ONEWEB-0347","OBJECT_ID":"2021-090B","EPOCH":"2025-09-09T06:57:36.989280","MEAN_MOTION":13.20770703,"ECCENTRICITY":0.00017856,"INCLINATION":87.9286,"RA_OF_ASC_NODE":330.4424,"ARG_OF_PERICENTER":88.0406,"MEAN_ANOMALY":272.0932,"EPHEMERIS_TYPE":0,"CLASSIFICATION_TYPE":"U","NORAD_CAT_ID":49280,"ELEMENT_SET_NO":999,"REV_AT_EPOCH":19396,"BSTAR":0.0002096806,"MEAN_MOTION_DOT":9.8e-7,"MEAN_MOTION_DDOT":0},{"OBJECT_NAME":"ONEWEB-0349","OBJECT_ID":"2021-090C","EPOCH":"2025-09-09T05:53:58.698528","MEAN_MOTION":13.20770648,"ECCENTRICITY":0.00018447,"INCLINATION":87.9278,"RA_OF_ASC_NODE":330.4521,"ARG_OF_PERICENTER":101.6681,"MEAN_ANOMALY":258.466,"EPHEMERIS_TYPE":0,"CLASSIFICATION_TYPE":"U","NORAD_CAT_ID":49281,"ELEMENT_SET_NO":999,"REV_AT_EPOCH":19274,"BSTAR":0.00037931608,"MEAN_MOTION_DOT":1.67e-6,"MEAN_MOTION_DDOT":0},{"OBJECT_NAME":"ONEWEB-0353","OBJECT_ID":"2021-090D","EPOCH":"2025-09-09T06:14:21.077952","MEAN_MOTION":13.14503818,"ECCENTRICITY":0.00016477,"INCLINATION":87.9086,"RA_OF_ASC_NODE":345.6363,"ARG_OF_PERICENTER":93.3086,"MEAN_ANOMALY":266.8232,"EPHEMERIS_TYPE":0,"CLASSIFICATION_TYPE":"U","NORAD_CAT_ID":49282,"ELEMENT_SET_NO":999,"REV_AT_EPOCH":19067,"BSTAR":0.00073360527,"MEAN_MOTION_DOT":2.85e-6,"MEAN_MOTION_DDOT":0},{"OBJECT_NAME":"ONEWEB-0356","OBJECT_ID":"2021-090E","EPOCH":"2025-09-09T05:51:42.642720","MEAN_MOTION":13.20770118,"ECCENTRICITY":0.00025991,"INCLINATION":87.9276,"RA_OF_ASC_NODE":330.4441,"ARG_OF_PERICENTER":85.6724,"MEAN_ANOMALY":274.4706,"EPHEMERIS_TYPE":0,"CLASSIFICATION_TYPE":"U","NORAD_CAT_ID":49283,"ELEMENT_SET_NO":999,"REV_AT_EPOCH":19274,"BSTAR":0.00037474783,"MEAN_MOTION_DOT":1.65e-6,"MEAN_MOTION_DDOT":0},{"OBJECT_NAME":"ONEWEB-0358","OBJECT_ID":"2021-090F","EPOCH":"2025-09-09T04:45:47.995488","MEAN_MOTION":13.2077126,"ECCENTRICITY":0.00020444,"INCLINATION":87.929,"RA_OF_ASC_NODE":330.4459,"ARG_OF_PERICENTER":99.7476,"MEAN_ANOMALY":260.3888,"EPHEMERIS_TYPE":0,"CLASSIFICATION_TYPE":"U","NORAD_CAT_ID":49284,"ELEMENT_SET_NO":999,"REV_AT_EPOCH":19346,"BSTAR":0.00012690417,"MEAN_MOTION_DOT":6.5e-7,"MEAN_MOTION_DDOT":0},{"OBJECT_NAME":"ONEWEB-0359","OBJECT_ID":"2021-090G","EPOCH":"2025-09-09T06:30:19.803456","MEAN_MOTION":13.20772801,"ECCENTRICITY":0.00021925,"INCLINATION":87.9278,"RA_OF_ASC_NODE":330.4392,"ARG_OF_PERICENTER":106.7787,"MEAN_ANOMALY":253.3587,"EPHEMERIS_TYPE":0,"CLASSIFICATION_TYPE":"U","NORAD_CAT_ID":49285,"ELEMENT_SET_NO":999,"REV_AT_EPOCH":19345,"BSTAR":-0.00014277165,"MEAN_MOTION_DOT":-4.5e-7,"MEAN_MOTION_DDOT":0},{"OBJECT_NAME":"ONEWEB-0360","OBJECT_ID":"2021-090H","EPOCH":"2025-09-09T06:16:43.447008","MEAN_MOTION":13.20772081,"ECCENTRICITY":0.0001967,"INCLINATION":87.9281,"RA_OF_ASC_NODE":330.4501,"ARG_OF_PERICENTER":103.8651,"MEAN_ANOMALY":256.2701,"EPHEMERIS_TYPE":0,"CLASSIFICATION_TYPE":"U","NORAD_CAT_ID":49286,"ELEMENT_SET_NO":999,"REV_AT_EPOCH":19276,"BSTAR":6.8311535e-5,"MEAN_MOTION_DOT":4.1e-7,"MEAN_MOTION_DDOT":0},{"OBJECT_NAME":"ONEWEB-0361","OBJECT_ID":"2021-090J","EPOCH":"2025-09-09T05:49:25.584672","MEAN_MOTION":13.20771408,"ECCENTRICITY":0.00020548,"INCLINATION":87.9283,"RA_OF_ASC_NODE":330.4496,"ARG_OF_PERICENTER":95.9344,"MEAN_ANOMALY":264.2024,"EPHEMERIS_TYPE":0,"CLASSIFICATION_TYPE":"U","NORAD_CAT_ID":49287,"ELEMENT_SET_NO":999,"REV_AT_EPOCH":19321,"BSTAR":-0.00037171825,"MEAN_MOTION_DOT":-1.38e-6,"MEAN_MOTION_DDOT":0},{"OBJECT_NAME":"ONEWEB-0362","OBJECT_ID":"2021-090K","EPOCH":"2025-09-09T06:37:27.664896","MEAN_MOTION":13.19719309,"ECCENTRICITY":0.00016849,"INCLINATION":87.9284,"RA_OF_ASC_NODE":0.8458,"ARG_OF_PERICENTER":105.3948,"MEAN_ANOMALY":254.7371,"EPHEMERIS_TYPE":0,"CLASSIFICATION_TYPE":"U","NORAD_CAT_ID":49288,"ELEMENT_SET_NO":999,"REV_AT_EPOCH":18986,"BSTAR":0.0029573583,"MEAN_MOTION_DOT":1.197e-5,"MEAN_MOTION_DDOT":0},{"OBJECT_NAME":"ONEWEB-0363","OBJECT_ID":"2021-090L","EPOCH":"2025-09-09T06:12:09.126144","MEAN_MOTION":13.20774269,"ECCENTRICITY":0.00022761,"INCLINATION":87.9283,"RA_OF_ASC_NODE":330.4423,"ARG_OF_PERICENTER":94.1935,"MEAN_ANOMALY":265.9459,"EPHEMERIS_TYPE":0,"CLASSIFICATION_TYPE":"U","NORAD_CAT_ID":49289,"ELEMENT_SET_NO":999,"REV_AT_EPOCH":19322,"BSTAR":0.00037945712,"MEAN_MOTION_DOT":1.67e-6,"MEAN_MOTION_DDOT":0},{"OBJECT_NAME":"ONEWEB-0364","OBJECT_ID":"2021-090M","EPOCH":"2025-09-09T05:17:37.729248","MEAN_MOTION":13.20773413,"ECCENTRICITY":0.00019937,"INCLINATION":87.9276,"RA_OF_ASC_NODE":330.4763,"ARG_OF_PERICENTER":95.5489,"MEAN_ANOMALY":264.5871,"EPHEMERIS_TYPE":0,"CLASSIFICATION_TYPE":"U","NORAD_CAT_ID":49290,"ELEMENT_SET_NO":999,"REV_AT_EPOCH":19435,"BSTAR":0.00032280298,"MEAN_MOTION_DOT":1.44e-6,"MEAN_MOTION_DDOT":0}]
