ONEWEB-0352             
1 49216U 21083AG  25252.08208023 -.00000075  00000+0 -23920-3 0  9997
2 49216  87.9013  16.0998 0001338 105.5109 254.6168 13.13471115194127
ONEWEB-0354             
1 49217U 21083AH  25252.22687642  .00000155  00000+0  34865-3 0  9999
2 49217  87.9291 330.4411 0002111 105.6553 254.4814 13.20769915199726
ONEWEB-0355             
1 49218U 21083AJ  25252.26336023  .00000384  00000+0  10165-2 0  9998
2 49218  87.9033  16.0690 0001663 105.8177 254.3135 13.13468986194021
ONEWEB-0357             
1 49219U 21083AK  25252.22373117 -.00001122  00000+0 -27913-2 0  9992
2 49219  87.9282 330.4422 0001824 103.0555 257.0782 13.20759760199724
ONEWEB-0332             
1 49279U 21090A   25252.26789213  .00000122  00000+0  29568-3 0  9994
2 49279  87.9093 345.6493 0001596  95.0838 265.0474 13.14502714190676
ONEWEB-0347             
1 49280U 21090B   25252.29001145  .00000098  00000+0  20968-3 0  9997
2 49280  87.9286 330.4424 0001785  88.0406 272.0932 13.20770703193965
ONEWEB-0349             
1 49281U 21090C   25252.24581827  .00000167  00000+0  37932-3 0  9999
2 49281  87.9278 330.4521 0001844 101.6681 258.4660 13.20770648192747
ONEWEB-0353             
1 49282U 21090D   25252.25996618  .00000285  00000+0  73361-3 0  9996
2 49282  87.9086 345.6363 0001647  93.3086 266.8232 13.14503818190678
ONEWEB-0356             
1 49283U 21090E   25252.24424355  .00000165  00000+0  37475-3 0  9993
2 49283  87.9276 330.4441 0002599  85.6724 274.4706 13.20770118192746
ONEWEB-0358             
1 49284U 21090F   25252.19847217  .00000065  00000+0  12690-3 0  9995
2 49284  87.9290 330.4459 0002044  99.7476 260.3888 13.20771260193461
ONEWEB-0359             
1 49285U 21090G   25252.27106254 -.00000045  00000+0 -14277-3 0  9997
2 49285  87.9278 330.4392 0002192 106.7787 253.3587 13.20772801193451
ONEWEB-0360             
1 49286U 21090H   25252.26161397  .00000041  00000+0  68312-4 0  9990
2 49286  87.9281 330.4501 0001967 103.8651 256.2701 13.20772081192768
ONEWEB-0361             
1 49287U 21090J   25252.24265723 -.00000138  00000+0 -37172-3 0  9995
2 49287  87.9283 330.4496 0002054  95.9344 264.2024 13.20771408193212
ONEWEB-0362             
1 49288U 21090K   25252.27601464  .00001197  00000+0  29574-2 0  9995
2 49288  87.9284   0.8458 0001684 105.3948 254.7371 13.19719309189869
ONEWEB-0363             
1 49289U 21090L   25252.25843896  .00000167  00000+0  37946-3 0  9990
2 49289  87.9283 330.4423 0002276  94.1935 265.9459 13.20774269193226
ONEWEB-0364             
1 49290U 21090M   25252.22057557  .00000144  00000+0  32280-3 0  9991
2 49290  87.9276 330.4763 0001993  95.5489 264.5871 13.20773413194359
